STARLINK-4094           
1 53147U 22083R   26162.55893080 -.00001084  00000+0 -50046-4 0  9993
2 53147  53.1610 112.6636 0001345  87.8105 272.3040 15.08836367216043
STARLINK-4021           
1 53149U 22083T   26162.12290621  .00000186  00000+0  29764-4 0  9993
2 53149  53.1604 104.8259 0001481  88.1163 271.9998 15.08832148215466
STARLINK-4040           
1 53151U 22083V   26162.53040821  .00000190  00000+0  30051-4 0  9992
2 53151  53.1603 102.7938 0001394  87.6432 272.4719 15.08830109215524
STARLINK-4045           
1 53152U 22083W   26162.75002315  .00184695  00000+0  37931-2 0  9998
2 53152  53.2180  92.7829 0001133  92.2160 337.1207 15.44846501  5794
STARLINK-4098           
1 53153U 22083X   26162.52672685  .00000471  00000+0  47711-4 0  9995
2 53153  53.1601 102.8099 0001449  83.9309 276.1848 15.08832405215521
STARLINK-4077           
1 53154U 22083Y   26162.13664742 -.00002214  00000+0 -12106-3 0  9996
2 53154  53.1605 104.5614 0001174  90.7751 269.3375 15.08840717215467
STARLINK-4088           
1 53155U 22083Z   26162.12192768 -.00000167  00000+0  76195-5 0  9994
2 53155  53.1607 104.6288 0001405  93.9221 266.1931 15.08830759216102
STARLINK-4087           
1 53156U 22083AA  26162.11087198 -.00000705  00000+0 -26221-4 0  9997
2 53156  53.1642 104.5512 0001135  95.4042 264.7079 15.08830866215463
STARLINK-4054           
1 53158U 22083AC  26162.52303633  .00001871  00000+0  13561-3 0  9994
2 53158  53.1621 102.8260 0001521  95.2570 264.8595 15.08841424215529
STARLINK-4111           
1 53159U 22083AD  26162.57088413 -.00000098  00000+0  11928-4 0  9993
2 53159  53.1617 102.6095 0001217 109.8199 250.2923 15.08835508215531
STARLINK-4096           
1 53160U 22083AE  26162.11820928  .00005000  00000+0  33181-3 0  9991
2 53160  53.1635 104.6393 0002040 104.7217 255.4000 15.08866111215465
STARLINK-4055           
1 53161U 22083AF  26162.55983764  .00005240  00000+0  34711-3 0  9994
2 53161  53.1610 102.6588 0001373  94.8470 265.2679 15.08832515215531
STARLINK-4114           
1 53162U 22083AG  26162.11184262  .00000290  00000+0  36338-4 0  9991
2 53162  53.1612 104.6837 0001503  91.9308 268.1856 15.08836364215463
STARLINK-4104           
1 53163U 22083AH  26162.10354113  .00000220  00000+0  31916-4 0  9995
2 53163  53.1611 104.8557 0001380  87.7031 272.4118 15.08839073215462
STARLINK-4116           
1 53164U 22083AJ  26162.16608600  .00000088  00000+0  23610-4 0  9999
2 53164  53.1607 104.4310 0001127  85.9917 274.1203 15.08835318215476
STARLINK-4090           
1 53165U 22083AK  26162.15137108  .00000245  00000+0  33470-4 0  9999
2 53165  53.1622 104.4953 0001411  83.6246 276.4906 15.08831802215472
STARLINK-4110           
1 53166U 22083AL  26162.75002315  .00560797  00000+0  78075-2 0  9998
2 53166  53.2173  89.9019 0001538  84.8660 271.9160 15.54469599  5704
STARLINK-3683           
1 53167U 22083AM  26162.50050760  .00000306  00000+0  37329-4 0  9993
2 53167  53.1594  87.9182 0001299  88.4865 271.6275 15.08832128215721
STARLINK-4105           
1 53168U 22083AN  26162.15506583 -.00000685  00000+0 -24975-4 0  9999
2 53168  53.1606 104.4758 0001286  81.4148 278.6989 15.08824041215479
STARLINK-4117           
1 53169U 22083AP  26162.08101791 -.00000536  00000+0 -15559-4 0  9997
2 53169  53.1618  90.0708 0001437  89.1823 270.9333 15.08834236215656
STARLINK-4095           
1 53170U 22083AQ  26162.51429516 -.00001540  00000+0 -78680-4 0  9995
2 53170  53.1616  97.8180 0001397  95.5571 264.5580 15.08836497215598
STARLINK-4052           
1 53171U 22083AR  26162.48899161  .00000266  00000+0  34819-4 0  9997
2 53171  53.1631  72.7387 0001396  83.4268 276.6882 15.08827215215930
STARLINK-4299           
1 53172U 22083AS  26162.10951112  .00000622  00000+0  57210-4 0  9998
2 53172  53.1619  99.5991 0001471  76.0992 284.0163 15.08829421215522
STARLINK-4300           
1 53173U 22083AT  26162.46095124  .00004621  00000+0  30847-3 0  9999
2 53173  53.1604  78.0948 0001327  94.9884 265.1259 15.08812867215858
STARLINK-4205           
1 53174U 22083AU  26162.15139532  .00000362  00000+0  40870-4 0  9994
2 53174  53.1615 114.4295 0001411  89.6030 270.5123 15.08832069215327
STARLINK-4292           
1 53175U 22083AV  26162.55156696  .00000074  00000+0  22729-4 0  9992
2 53175  53.1612 112.6966 0001426  89.4406 270.6749 15.08834138215381
STARLINK-4294           
1 53176U 22083AW  26162.48947360  .00012758  00000+0  81963-3 0  9997
2 53176  53.1604  87.8883 0001176  90.5297 269.5829 15.08776188215721
STARLINK-4298           
1 53177U 22083AX  26162.05614429 -.00000305  00000+0 -10454-5 0  9994
2 53177  53.1617  79.9122 0001377  90.8593 269.2556 15.08833149215791
STARLINK-4280           
1 53178U 22083AY  26162.14769021 -.00000478  00000+0 -11916-4 0  9998
2 53178  53.1600 104.5108 0001248  77.0306 283.0824 15.08829657215453
STARLINK-4276           
1 53179U 22083AZ  26162.00779724  .00000599  00000+0  55752-4 0  9993
2 53179  53.1607  64.7396 0001438  89.6354 270.4802 15.08830635216006
