OBJECT_NAME,OBJECT_ID,EPOCH,MEAN_MOTION,ECCENTRICITY,INCLINATION,RA_OF_ASC_NODE,ARG_OF_PERICENTER,MEAN_ANOMALY,EPHEMERIS_TYPE,CLASSIFICATION_TYPE,NORAD_CAT_ID,ELEMENT_SET_NO,REV_AT_EPOCH,BSTAR,MEAN_MOTION_DOT,MEAN_MOTION_DDOT
STARLINK-4094,2022-083R,2026-06-11T13:24:51.621120,15.08836367,.0001345,53.1610,112.6636,87.8105,272.3040,0,U,53147,999,21604,-.50046E-4,-.1084E-4,0
STARLINK-4021,2022-083T,2026-06-11T02:56:59.096544,15.08832148,.00014818,53.1604,104.8259,88.1163,271.9998,0,U,53149,999,21546,.29763676E-4,.186E-5,0
STARLINK-4040,2022-083V,2026-06-11T12:43:47.269344,15.08830109,.0001394,53.1603,102.7938,87.6432,272.4719,0,U,53151,999,21552,.30051E-4,.19E-5,0
STARLINK-4045,2022-083W,2026-06-11T18:00:02.000160,15.44846501,.0001133,53.2180,92.7829,92.2160,337.1207,0,U,53152,999,579,.37931E-2,.184695E-2,0
STARLINK-4098,2022-083X,2026-06-11T12:38:29.199840,15.08832405,.0001449,53.1601,102.8099,83.9309,276.1848,0,U,53153,999,21552,.47711E-4,.471E-5,0
STARLINK-4077,2022-083Y,2026-06-11T03:16:46.337088,15.08840717,.00011744,53.1605,104.5614,90.7751,269.3375,0,U,53154,999,21546,-.12105725E-3,-.2214E-4,0
STARLINK-4088,2022-083Z,2026-06-11T02:55:34.551552,15.08830759,.00014058,53.1607,104.6288,93.9221,266.1931,0,U,53155,999,21610,.7619499E-5,-.167E-5,0
STARLINK-4087,2022-083AA,2026-06-11T02:39:39.339072,15.08830866,.00011358,53.1642,104.5512,95.4042,264.7079,0,U,53156,999,21546,-.2622139E-4,-.705E-5,0
STARLINK-4054,2022-083AC,2026-06-11T12:33:10.338912,15.08841424,.0001521,53.1621,102.8260,95.2570,264.8595,0,U,53158,999,21552,.13561E-3,.1871E-4,0
STARLINK-4111,2022-083AD,2026-06-11T13:42:04.388832,15.08835508,.0001217,53.1617,102.6095,109.8199,250.2923,0,U,53159,999,21553,.11928E-4,-.98E-6,0
STARLINK-4096,2022-083AE,2026-06-11T02:50:13.281792,15.08866111,.00020405,53.1635,104.6393,104.7217,255.4000,0,U,53160,999,21546,.33181386E-3,.5E-4,0
STARLINK-4055,2022-083AF,2026-06-11T13:26:09.972096,15.08832515,.0001373,53.1610,102.6588,94.8470,265.2679,0,U,53161,999,21553,.34711E-3,.524E-4,0
STARLINK-4114,2022-083AG,2026-06-11T02:41:03.202368,15.08836364,.00015034,53.1612,104.6837,91.9308,268.1856,0,U,53162,999,21546,.36338026E-4,.29E-5,0
STARLINK-4104,2022-083AH,2026-06-11T02:29:05.953632,15.08839073,.00013807,53.1611,104.8557,87.7031,272.4118,0,U,53163,999,21546,.31916412E-4,.22E-5,0
STARLINK-4116,2022-083AJ,2026-06-11T03:59:09.830400,15.08835318,.0001127,53.1607,104.4310,85.9917,274.1203,0,U,53164,999,21547,.23609629E-4,.88E-6,0
STARLINK-4090,2022-083AK,2026-06-11T03:37:58.461312,15.08831802,.00014112,53.1622,104.4953,83.6246,276.4906,0,U,53165,999,21547,.3346986E-4,.245E-5,0
STARLINK-4110,2022-083AL,2026-06-11T18:00:02.000160,15.54469599,.0001538,53.2173,89.9019,84.8660,271.9160,0,U,53166,999,570,.78075E-2,.560797E-2,0
STARLINK-3683,2022-083AM,2026-06-11T12:00:43.856640,15.08832128,.0001299,53.1594,87.9182,88.4865,271.6275,0,U,53167,999,21572,.37329E-4,.306E-5,0
STARLINK-4105,2022-083AN,2026-06-11T03:43:17.687712,15.08824041,.0001286,53.1606,104.4758,81.4148,278.6989,0,U,53168,999,21547,-.24975275E-4,-.685E-5,0
STARLINK-4117,2022-083AP,2026-06-11T01:56:39.947424,15.08834236,.00014377,53.1618,90.0708,89.1823,270.9333,0,U,53169,999,21565,-.15558958E-4,-.536E-5,0
STARLINK-4095,2022-083AQ,2026-06-11T12:20:35.101824,15.08836497,.0001397,53.1616,97.8180,95.5571,264.5580,0,U,53170,999,21559,-.7868E-4,-.154E-4,0
STARLINK-4052,2022-083AR,2026-06-11T11:44:08.875104,15.08827215,.0001396,53.1631,72.7387,83.4268,276.6882,0,U,53171,999,21593,.34819E-4,.266E-5,0
STARLINK-4299,2022-083AS,2026-06-11T02:37:41.760768,15.08829421,.00014717,53.1619,99.5991,76.0992,284.0163,0,U,53172,999,21552,.57210035E-4,.622E-5,0
STARLINK-4300,2022-083AT,2026-06-11T11:03:46.187136,15.08812867,.0001327,53.1604,78.0948,94.9884,265.1259,0,U,53173,999,21585,.30847E-3,.4621E-4,0
STARLINK-4205,2022-083AU,2026-06-11T03:38:00.555648,15.08832069,.00014115,53.1615,114.4295,89.6030,270.5123,0,U,53174,999,21532,.40869809E-4,.362E-5,0
STARLINK-4292,2022-083AV,2026-06-11T13:14:15.385344,15.08834138,.0001426,53.1612,112.6966,89.4406,270.6749,0,U,53175,999,21538,.22729E-4,.74E-6,0
STARLINK-4294,2022-083AW,2026-06-11T11:44:50.519040,15.08776188,.0001176,53.1604,87.8883,90.5297,269.5829,0,U,53176,999,21572,.81963E-3,.12758E-3,0
STARLINK-4298,2022-083AX,2026-06-11T01:20:50.866656,15.08833149,.00013777,53.1617,79.9122,90.8593,269.2556,0,U,53177,999,21579,-.1045403E-5,-.305E-5,0
STARLINK-4280,2022-083AY,2026-06-11T03:32:40.434144,15.08829657,.00012489,53.1600,104.5108,77.0306,283.0824,0,U,53178,999,21545,-.11916376E-4,-.478E-5,0
STARLINK-4276,2022-083AZ,2026-06-11T00:11:13.681536,15.08830635,.00014387,53.1607,64.7396,89.6354,270.4802,0,U,53179,999,21600,.55752148E-4,.599E-5,0
